{
  "links" : {
    "next" : "https://api.nasa.gov/neo/rest/v1/feed?start_date=2003-08-16&end_date=2003-08-16&detailed=true&api_key=t0TVs3DtDT2H8Oy2Zy8m2eVrNsAVKAexjcZXUckd",
    "prev" : "https://api.nasa.gov/neo/rest/v1/feed?start_date=2003-08-14&end_date=2003-08-14&detailed=true&api_key=t0TVs3DtDT2H8Oy2Zy8m2eVrNsAVKAexjcZXUckd",
    "self" : "https://api.nasa.gov/neo/rest/v1/feed?start_date=2003-08-15&end_date=2003-08-15&detailed=true&api_key=t0TVs3DtDT2H8Oy2Zy8m2eVrNsAVKAexjcZXUckd"
  },
  "element_count" : 5,
  "near_earth_objects" : {
    "2003-08-15" : [ {
      "links" : {
        "self" : "https://api.nasa.gov/neo/rest/v1/neo/2406952?api_key=t0TVs3DtDT2H8Oy2Zy8m2eVrNsAVKAexjcZXUckd"
      },
      "neo_reference_id" : "2406952",
      "name" : "406952 (2009 KJ)",
      "nasa_jpl_url" : "http://ssd.jpl.nasa.gov/sbdb.cgi?sstr=2406952",
      "absolute_magnitude_h" : 17.2,
      "estimated_diameter" : {
        "kilometers" : {
          "estimated_diameter_min" : 0.9650614696,
          "estimated_diameter_max" : 2.1579430484
        },
        "meters" : {
          "estimated_diameter_min" : 965.0614695789,
          "estimated_diameter_max" : 2157.9430484443
        },
        "miles" : {
          "estimated_diameter_min" : 0.5996612104,
          "estimated_diameter_max" : 1.34088323
        },
        "feet" : {
          "estimated_diameter_min" : 3166.2122718533,
          "estimated_diameter_max" : 7079.8658710581
        }
      },
      "is_potentially_hazardous_asteroid" : false,
      "close_approach_data" : [ {
        "close_approach_date" : "2003-08-15",
        "epoch_date_close_approach" : 1060930800000,
        "relative_velocity" : {
          "kilometers_per_second" : "33.841845622",
          "kilometers_per_hour" : "121830.6442391834",
          "miles_per_hour" : "75700.8244718415"
        },
        "miss_distance" : {
          "astronomical" : "0.4490464239",
          "lunar" : "174.6790618896",
          "kilometers" : "67176392",
          "miles" : "41741476"
        },
        "orbiting_body" : "Earth"
      } ],
      "orbital_data" : {
        "orbit_id" : "28",
        "orbit_determination_date" : "2017-04-06 09:21:46",
        "orbit_uncertainty" : "0",
        "minimum_orbit_intersection" : ".0869675",
        "jupiter_tisserand_invariant" : "4.764",
        "epoch_osculation" : "2458000.5",
        "eccentricity" : ".7173006033680602",
        "semi_major_axis" : "1.240980852319797",
        "inclination" : "32.97430794676998",
        "ascending_node_longitude" : "12.5729700779251",
        "orbital_period" : "504.9472924003422",
        "perihelion_distance" : ".350824538182597",
        "perihelion_argument" : "67.04669339821552",
        "aphelion_distance" : "2.131137166456997",
        "perihelion_time" : "2457949.482165186809",
        "mean_anomaly" : "36.37294586815442",
        "mean_motion" : ".7129456983295948",
        "equinox" : "J2000"
      }
    }, {
      "links" : {
        "self" : "https://api.nasa.gov/neo/rest/v1/neo/3157333?api_key=t0TVs3DtDT2H8Oy2Zy8m2eVrNsAVKAexjcZXUckd"
      },
      "neo_reference_id" : "3157333",
      "name" : "(2003 ND)",
      "nasa_jpl_url" : "http://ssd.jpl.nasa.gov/sbdb.cgi?sstr=3157333",
      "absolute_magnitude_h" : 18.7,
      "estimated_diameter" : {
        "kilometers" : {
          "estimated_diameter_min" : 0.4836764882,
          "estimated_diameter_max" : 1.0815335068
        },
        "meters" : {
          "estimated_diameter_min" : 483.6764882185,
          "estimated_diameter_max" : 1081.533506775
        },
        "miles" : {
          "estimated_diameter_min" : 0.3005425432,
          "estimated_diameter_max" : 0.6720335566
        },
        "feet" : {
          "estimated_diameter_min" : 1586.8651696069,
          "estimated_diameter_max" : 3548.3383903678
        }
      },
      "is_potentially_hazardous_asteroid" : false,
      "close_approach_data" : [ {
        "close_approach_date" : "2003-08-15",
        "epoch_date_close_approach" : 1060930800000,
        "relative_velocity" : {
          "kilometers_per_second" : "5.6990886197",
          "kilometers_per_hour" : "20516.7190309798",
          "miles_per_hour" : "12748.2913334441"
        },
        "miss_distance" : {
          "astronomical" : "0.3473982292",
          "lunar" : "135.1379089355",
          "kilometers" : "51970036",
          "miles" : "32292682"
        },
        "orbiting_body" : "Earth"
      } ],
      "orbital_data" : {
        "orbit_id" : "50",
        "orbit_determination_date" : "2017-04-06 09:14:00",
        "orbit_uncertainty" : "0",
        "minimum_orbit_intersection" : ".210314",
        "jupiter_tisserand_invariant" : "3.505",
        "epoch_osculation" : "2458000.5",
        "eccentricity" : ".450394497315064",
        "semi_major_axis" : "2.220705671913726",
        "inclination" : "5.094915470038065",
        "ascending_node_longitude" : "297.0600861063514",
        "orbital_period" : "1208.745665045237",
        "perihelion_distance" : "1.220512057127432",
        "perihelion_argument" : "23.6901064718481",
        "aphelion_distance" : "3.220899286700019",
        "perihelion_time" : "2457686.293463225108",
        "mean_anomaly" : "93.57994531854456",
        "mean_motion" : ".2978294031660723",
        "equinox" : "J2000"
      }
    }, {
      "links" : {
        "self" : "https://api.nasa.gov/neo/rest/v1/neo/3158115?api_key=t0TVs3DtDT2H8Oy2Zy8m2eVrNsAVKAexjcZXUckd"
      },
      "neo_reference_id" : "3158115",
      "name" : "(2003 QK5)",
      "nasa_jpl_url" : "http://ssd.jpl.nasa.gov/sbdb.cgi?sstr=3158115",
      "absolute_magnitude_h" : 22.6,
      "estimated_diameter" : {
        "kilometers" : {
          "estimated_diameter_min" : 0.0802703167,
          "estimated_diameter_max" : 0.1794898848
        },
        "meters" : {
          "estimated_diameter_min" : 80.2703167283,
          "estimated_diameter_max" : 179.4898847799
        },
        "miles" : {
          "estimated_diameter_min" : 0.049877647,
          "estimated_diameter_max" : 0.1115298092
        },
        "feet" : {
          "estimated_diameter_min" : 263.3540659348,
          "estimated_diameter_max" : 588.8775935812
        }
      },
      "is_potentially_hazardous_asteroid" : false,
      "close_approach_data" : [ {
        "close_approach_date" : "2003-08-15",
        "epoch_date_close_approach" : 1060930800000,
        "relative_velocity" : {
          "kilometers_per_second" : "9.0928998755",
          "kilometers_per_hour" : "32734.439551859",
          "miles_per_hour" : "20339.9077315426"
        },
        "miss_distance" : {
          "astronomical" : "0.1056310553",
          "lunar" : "41.0904808044",
          "kilometers" : "15802181",
          "miles" : "9819020"
        },
        "orbiting_body" : "Earth"
      } ],
      "orbital_data" : {
        "orbit_id" : "15",
        "orbit_determination_date" : "2017-04-06 09:13:57",
        "orbit_uncertainty" : "5",
        "minimum_orbit_intersection" : ".101321",
        "jupiter_tisserand_invariant" : "5.040",
        "epoch_osculation" : "2458000.5",
        "eccentricity" : ".1595349565723806",
        "semi_major_axis" : "1.266506367001691",
        "inclination" : "17.01632570820105",
        "ascending_node_longitude" : "148.3913179623252",
        "orbital_period" : "520.6063883286876",
        "perihelion_distance" : "1.064454328743432",
        "perihelion_argument" : "129.1538559539304",
        "aphelion_distance" : "1.468558405259949",
        "perihelion_time" : "2458025.254225343715",
        "mean_anomaly" : "342.8824207241361",
        "mean_motion" : ".6915013109149789",
        "equinox" : "J2000"
      }
    } ]
  }
}